TECHNOSAT               
1 42829U 17042E   26095.49931249  .00004649  00000+0  33498-3 0  9994
2 42829  97.4207 255.9810 0017148 348.4283  11.6547 15.04524029475775
FLYING LAPTOP           
1 42831U 17042G   26095.58397470  .00002068  00000+0  16716-3 0  9996
2 42831  97.4367 254.0784 0019681  11.8126 348.3557 15.00706762475566
WNISAT 1R               
1 42835U 17042L   26095.38958437  .00004846  00000+0  37954-3 0  9997
2 42835  97.4647 254.1861 0013393  48.3951 311.8419 15.01384057475587
LEMUR-2-GREENBERG       
1 42837U 17042N   26095.49936375  .00021535  00000+0  76307-3 0  9997
2 42837  97.3799 276.5924 0008075 259.8450 100.1880 15.29094313477270
LEMUR-2-FURIAUS         
1 42840U 17042R   26095.56773279  .00028544  00000+0  10538-2 0  9991
2 42840  97.3759 274.7884 0006816 321.0441  39.0307 15.27696873477112
CORVUS BC2              
1 42846U 17042X   26095.37615846  .00005095  00000+0  35440-3 0  9997
2 42846  97.3996 259.6109 0013215   9.4076 350.7396 15.05844910476107
CORVUS BC1              
1 42847U 17042Y   26095.44553764  .00004327  00000+0  30031-3 0  9994
2 42847  97.4030 260.4428 0011326 346.1605  13.9310 15.06031358476145
VRSS-2                  
1 42954U 17060A   26095.63057250  .00001773  00000+0  23431-3 0  9991
2 42954  97.6595 136.6013 0016656 342.6494  17.4148 14.81083536457711
MOHAMMED VI-A           
1 43005U 17070A   26095.59143850  .00001707  00000+0  24887-3 0  9990
2 43005  97.9389 168.9148 0001169  79.2513 280.8828 14.77097200453263
FENGYUN 3D              
1 43010U 17072A   26095.62838523  .00000095  00000+0  66513-4 0  9992
2 43010  99.0076  68.7632 0000445 248.4293 111.6835 14.19723159434691
CZ-4C R/B               
1 43012U 17072C   26095.26467551  .00000545  00000+0  11633-3 0  9995
2 43012  98.5712 200.9068 0122801  17.0708 343.4565 14.58724647446008
NOAA 20 (JPSS-1)        
1 43013U 17073A   26095.54221320  .00000118  00000+0  77049-4 0  9990
2 43013  98.7724  35.6676 0002041 101.4114 258.7291 14.19543446434165
MAKERSAT 0              
1 43016U 17073D   26095.61046918  .00024999  00000+0  72642-3 0  9995
2 43016  97.4720 337.6959 0114325 169.8133 190.5464 15.29101771455360
RADFXSAT (FOX-1B)       
1 43017U 17073E   26095.61155570  .00009810  00000+0  43990-3 0  9990
2 43017  97.4804 324.3442 0152928 218.4998 140.5246 15.11458147454427
JILIN-1 04              
1 43022U 17074A   26095.57775759  .00018982  00000+0  46719-3 0  9991
2 43022  97.4785 203.3927 0005384  99.1463 261.0392 15.40639951463088
JILIN-1 05              
1 43023U 17074B   26095.55206730  .00008394  00000+0  26678-3 0  9996
2 43023  97.4796 200.8167 0006614 120.2302 239.9596 15.32866258462873
