[{"OBJECT_NAME":"TECHNOSAT","OBJECT_ID":"2017-042E","EPOCH":"2026-04-05T11:59:00.599136","MEAN_MOTION":15.04524029,"ECCENTRICITY":0.00171481,"INCLINATION":97.4207,"RA_OF_ASC_NODE":255.981,"ARG_OF_PERICENTER":348.4283,"MEAN_ANOMALY":11.6547,"EPHEMERIS_TYPE":0,"CLASSIFICATION_TYPE":"U","NORAD_CAT_ID":42829,"ELEMENT_SET_NO":999,"REV_AT_EPOCH":47577,"BSTAR":0.00033498158,"MEAN_MOTION_DOT":4.649e-5,"MEAN_MOTION_DDOT":0},{"OBJECT_NAME":"FLYING LAPTOP","OBJECT_ID":"2017-042G","EPOCH":"2026-04-05T14:00:55.414080","MEAN_MOTION":15.00706762,"ECCENTRICITY":0.00196811,"INCLINATION":97.4367,"RA_OF_ASC_NODE":254.0784,"ARG_OF_PERICENTER":11.8126,"MEAN_ANOMALY":348.3557,"EPHEMERIS_TYPE":0,"CLASSIFICATION_TYPE":"U","NORAD_CAT_ID":42831,"ELEMENT_SET_NO":999,"REV_AT_EPOCH":47556,"BSTAR":0.0001671566,"MEAN_MOTION_DOT":2.068e-5,"MEAN_MOTION_DDOT":0},{"OBJECT_NAME":"WNISAT 1R","OBJECT_ID":"2017-042L","EPOCH":"2026-04-05T09:21:00.089568","MEAN_MOTION":15.01384057,"ECCENTRICITY":0.00133934,"INCLINATION":97.4647,"RA_OF_ASC_NODE":254.1861,"ARG_OF_PERICENTER":48.3951,"MEAN_ANOMALY":311.8419,"EPHEMERIS_TYPE":0,"CLASSIFICATION_TYPE":"U","NORAD_CAT_ID":42835,"ELEMENT_SET_NO":999,"REV_AT_EPOCH":47558,"BSTAR":0.00037954361,"MEAN_MOTION_DOT":4.846e-5,"MEAN_MOTION_DDOT":0},{"OBJECT_NAME":"LEMUR-2-GREENBERG","OBJECT_ID":"2017-042N","EPOCH":"2026-04-05T11:59:05.028000","MEAN_MOTION":15.29094313,"ECCENTRICITY":0.00080755,"INCLINATION":97.3799,"RA_OF_ASC_NODE":276.5924,"ARG_OF_PERICENTER":259.845,"MEAN_ANOMALY":100.188,"EPHEMERIS_TYPE":0,"CLASSIFICATION_TYPE":"U","NORAD_CAT_ID":42837,"ELEMENT_SET_NO":999,"REV_AT_EPOCH":47727,"BSTAR":0.00076307315,"MEAN_MOTION_DOT":0.00021535,"MEAN_MOTION_DDOT":0},{"OBJECT_NAME":"LEMUR-2-FURIAUS","OBJECT_ID":"2017-042R","EPOCH":"2026-04-05T13:37:32.113056","MEAN_MOTION":15.27696873,"ECCENTRICITY":0.00068161,"INCLINATION":97.3759,"RA_OF_ASC_NODE":274.7884,"ARG_OF_PERICENTER":321.0441,"MEAN_ANOMALY":39.0307,"EPHEMERIS_TYPE":0,"CLASSIFICATION_TYPE":"U","NORAD_CAT_ID":42840,"ELEMENT_SET_NO":999,"REV_AT_EPOCH":47711,"BSTAR":0.0010538023,"MEAN_MOTION_DOT":0.00028544,"MEAN_MOTION_DDOT":0},{"OBJECT_NAME":"CORVUS BC2","OBJECT_ID":"2017-042X","EPOCH":"2026-04-05T09:01:40.090944","MEAN_MOTION":15.0584491,"ECCENTRICITY":0.00132159,"INCLINATION":97.3996,"RA_OF_ASC_NODE":259.6109,"ARG_OF_PERICENTER":9.4076,"MEAN_ANOMALY":350.7396,"EPHEMERIS_TYPE":0,"CLASSIFICATION_TYPE":"U","NORAD_CAT_ID":42846,"ELEMENT_SET_NO":999,"REV_AT_EPOCH":47610,"BSTAR":0.00035440252,"MEAN_MOTION_DOT":5.095e-5,"MEAN_MOTION_DDOT":0},{"OBJECT_NAME":"CORVUS BC1","OBJECT_ID":"2017-042Y","EPOCH":"2026-04-05T10:41:34.452096","MEAN_MOTION":15.06031358,"ECCENTRICITY":0.0011326,"INCLINATION":97.403,"RA_OF_ASC_NODE":260.4428,"ARG_OF_PERICENTER":346.1605,"MEAN_ANOMALY":13.931,"EPHEMERIS_TYPE":0,"CLASSIFICATION_TYPE":"U","NORAD_CAT_ID":42847,"ELEMENT_SET_NO":999,"REV_AT_EPOCH":47614,"BSTAR":0.00030031,"MEAN_MOTION_DOT":4.327e-5,"MEAN_MOTION_DDOT":0},{"OBJECT_NAME":"VRSS-2","OBJECT_ID":"2017-060A","EPOCH":"2026-04-05T15:08:01.464000","MEAN_MOTION":14.81083536,"ECCENTRICITY":0.00166566,"INCLINATION":97.6595,"RA_OF_ASC_NODE":136.6013,"ARG_OF_PERICENTER":342.6494,"MEAN_ANOMALY":17.4148,"EPHEMERIS_TYPE":0,"CLASSIFICATION_TYPE":"U","NORAD_CAT_ID":42954,"ELEMENT_SET_NO":999,"REV_AT_EPOCH":45771,"BSTAR":0.00023431166,"MEAN_MOTION_DOT":1.773e-5,"MEAN_MOTION_DDOT":0},{"OBJECT_NAME":"MOHAMMED VI-A","OBJECT_ID":"2017-070A","EPOCH":"2026-04-05T14:11:40.286400","MEAN_MOTION":14.770972,"ECCENTRICITY":0.00011698,"INCLINATION":97.9389,"RA_OF_ASC_NODE":168.9148,"ARG_OF_PERICENTER":79.2513,"MEAN_ANOMALY":280.8828,"EPHEMERIS_TYPE":0,"CLASSIFICATION_TYPE":"U","NORAD_CAT_ID":43005,"ELEMENT_SET_NO":999,"REV_AT_EPOCH":45326,"BSTAR":0.00024886854,"MEAN_MOTION_DOT":1.707e-5,"MEAN_MOTION_DDOT":0},{"OBJECT_NAME":"FENGYUN 3D","OBJECT_ID":"2017-072A","EPOCH":"2026-04-05T15:04:52.483872","MEAN_MOTION":14.19723159,"ECCENTRICITY":4.456e-5,"INCLINATION":99.0076,"RA_OF_ASC_NODE":68.7632,"ARG_OF_PERICENTER":248.4293,"MEAN_ANOMALY":111.6835,"EPHEMERIS_TYPE":0,"CLASSIFICATION_TYPE":"U","NORAD_CAT_ID":43010,"ELEMENT_SET_NO":999,"REV_AT_EPOCH":43469,"BSTAR":6.6512992e-5,"MEAN_MOTION_DOT":9.5e-7,"MEAN_MOTION_DDOT":0},{"OBJECT_NAME":"CZ-4C R/B","OBJECT_ID":"2017-072C","EPOCH":"2026-04-05T06:21:07.964064","MEAN_MOTION":14.58724647,"ECCENTRICITY":0.0122801,"INCLINATION":98.5712,"RA_OF_ASC_NODE":200.9068,"ARG_OF_PERICENTER":17.0708,"MEAN_ANOMALY":343.4565,"EPHEMERIS_TYPE":0,"CLASSIFICATION_TYPE":"U","NORAD_CAT_ID":43012,"ELEMENT_SET_NO":999,"REV_AT_EPOCH":44600,"BSTAR":0.00011633,"MEAN_MOTION_DOT":5.45e-6,"MEAN_MOTION_DDOT":0},{"OBJECT_NAME":"NOAA 20 (JPSS-1)","OBJECT_ID":"2017-073A","EPOCH":"2026-04-05T13:00:47.220480","MEAN_MOTION":14.19543446,"ECCENTRICITY":0.00020419,"INCLINATION":98.7724,"RA_OF_ASC_NODE":35.6676,"ARG_OF_PERICENTER":101.4114,"MEAN_ANOMALY":258.7291,"EPHEMERIS_TYPE":0,"CLASSIFICATION_TYPE":"U","NORAD_CAT_ID":43013,"ELEMENT_SET_NO":999,"REV_AT_EPOCH":43416,"BSTAR":7.7049037e-5,"MEAN_MOTION_DOT":1.18e-6,"MEAN_MOTION_DDOT":0},{"OBJECT_NAME":"MAKERSAT 0","OBJECT_ID":"2017-073D","EPOCH":"2026-04-05T14:39:04.537152","MEAN_MOTION":15.29101771,"ECCENTRICITY":0.01143251,"INCLINATION":97.472,"RA_OF_ASC_NODE":337.6959,"ARG_OF_PERICENTER":169.8133,"MEAN_ANOMALY":190.5464,"EPHEMERIS_TYPE":0,"CLASSIFICATION_TYPE":"U","NORAD_CAT_ID":43016,"ELEMENT_SET_NO":999,"REV_AT_EPOCH":45536,"BSTAR":0.00072641644,"MEAN_MOTION_DOT":0.00024999,"MEAN_MOTION_DDOT":0},{"OBJECT_NAME":"RADFXSAT (FOX-1B)","OBJECT_ID":"2017-073E","EPOCH":"2026-04-05T14:40:38.412480","MEAN_MOTION":15.11458147,"ECCENTRICITY":0.01529281,"INCLINATION":97.4804,"RA_OF_ASC_NODE":324.3442,"ARG_OF_PERICENTER":218.4998,"MEAN_ANOMALY":140.5246,"EPHEMERIS_TYPE":0,"CLASSIFICATION_TYPE":"U","NORAD_CAT_ID":43017,"ELEMENT_SET_NO":999,"REV_AT_EPOCH":45442,"BSTAR":0.00043990401,"MEAN_MOTION_DOT":9.81e-5,"MEAN_MOTION_DDOT":0},{"OBJECT_NAME":"JILIN-1 04","OBJECT_ID":"2017-074A","EPOCH":"2026-04-05T13:51:58.255776","MEAN_MOTION":15.40639951,"ECCENTRICITY":0.00053845,"INCLINATION":97.4785,"RA_OF_ASC_NODE":203.3927,"ARG_OF_PERICENTER":99.1463,"MEAN_ANOMALY":261.0392,"EPHEMERIS_TYPE":0,"CLASSIFICATION_TYPE":"U","NORAD_CAT_ID":43022,"ELEMENT_SET_NO":999,"REV_AT_EPOCH":46308,"BSTAR":0.00046719311,"MEAN_MOTION_DOT":0.00018982,"MEAN_MOTION_DDOT":0},{"OBJECT_NAME":"JILIN-1 05","OBJECT_ID":"2017-074B","EPOCH":"2026-04-05T13:14:58.614720","MEAN_MOTION":15.32866258,"ECCENTRICITY":0.00066141,"INCLINATION":97.4796,"RA_OF_ASC_NODE":200.8167,"ARG_OF_PERICENTER":120.2302,"MEAN_ANOMALY":239.9596,"EPHEMERIS_TYPE":0,"CLASSIFICATION_TYPE":"U","NORAD_CAT_ID":43023,"ELEMENT_SET_NO":999,"REV_AT_EPOCH":46287,"BSTAR":0.00026678381,"MEAN_MOTION_DOT":8.394e-5,"MEAN_MOTION_DDOT":0}]
